[{"OBJECT_NAME":"COSMOS 2251 DEB","OBJECT_ID":"1993-036WX","EPOCH":"2026-03-03T23:30:12.151584","MEAN_MOTION":14.73331456,"ECCENTRICITY":0.0028874,"INCLINATION":74.0488,"RA_OF_ASC_NODE":165.7996,"ARG_OF_PERICENTER":240.5065,"MEAN_ANOMALY":240.6699,"EPHEMERIS_TYPE":0,"CLASSIFICATION_TYPE":"U","NORAD_CAT_ID":34626,"ELEMENT_SET_NO":999,"REV_AT_EPOCH":90340,"BSTAR":0.0013498,"MEAN_MOTION_DOT":8.773e-5,"MEAN_MOTION_DDOT":0},{"OBJECT_NAME":"COSMOS 2251 DEB","OBJECT_ID":"1993-036XF","EPOCH":"2026-03-03T15:47:03.710112","MEAN_MOTION":14.55961561,"ECCENTRICITY":0.00456865,"INCLINATION":74.0489,"RA_OF_ASC_NODE":241.7358,"ARG_OF_PERICENTER":326.2371,"MEAN_ANOMALY":160.477,"EPHEMERIS_TYPE":0,"CLASSIFICATION_TYPE":"U","NORAD_CAT_ID":34634,"ELEMENT_SET_NO":999,"REV_AT_EPOCH":89959,"BSTAR":0.00040560434,"MEAN_MOTION_DOT":1.779e-5,"MEAN_MOTION_DDOT":0},{"OBJECT_NAME":"COSMOS 2251 DEB","OBJECT_ID":"1993-036XG","EPOCH":"2026-03-04T01:24:13.337280","MEAN_MOTION":14.69566467,"ECCENTRICITY":0.0029306,"INCLINATION":74.0427,"RA_OF_ASC_NODE":273.4041,"ARG_OF_PERICENTER":319.5369,"MEAN_ANOMALY":201.4832,"EPHEMERIS_TYPE":0,"CLASSIFICATION_TYPE":"U","NORAD_CAT_ID":34635,"ELEMENT_SET_NO":999,"REV_AT_EPOCH":74413,"BSTAR":0.001329,"MEAN_MOTION_DOT":7.921e-5,"MEAN_MOTION_DDOT":0},{"OBJECT_NAME":"COSMOS 2251 DEB","OBJECT_ID":"1993-036XJ","EPOCH":"2026-03-04T01:44:52.678752","MEAN_MOTION":14.60909203,"ECCENTRICITY":0.0049413,"INCLINATION":74.0498,"RA_OF_ASC_NODE":305.9521,"ARG_OF_PERICENTER":353.389,"MEAN_ANOMALY":130.6756,"EPHEMERIS_TYPE":0,"CLASSIFICATION_TYPE":"U","NORAD_CAT_ID":34637,"ELEMENT_SET_NO":999,"REV_AT_EPOCH":89714,"BSTAR":0.00094678,"MEAN_MOTION_DOT":4.688e-5,"MEAN_MOTION_DDOT":0},{"OBJECT_NAME":"COSMOS 2251 DEB","OBJECT_ID":"1993-036XN","EPOCH":"2026-03-04T01:17:55.330368","MEAN_MOTION":14.52639139,"ECCENTRICITY":0.0017759,"INCLINATION":73.837,"RA_OF_ASC_NODE":286.5265,"ARG_OF_PERICENTER":190.9289,"MEAN_ANOMALY":319.6002,"EPHEMERIS_TYPE":0,"CLASSIFICATION_TYPE":"U","NORAD_CAT_ID":34641,"ELEMENT_SET_NO":999,"REV_AT_EPOCH":89436,"BSTAR":0.00064761,"MEAN_MOTION_DOT":2.629e-5,"MEAN_MOTION_DDOT":0},{"OBJECT_NAME":"COSMOS 2251 DEB","OBJECT_ID":"1993-036XP","EPOCH":"2026-03-03T18:00:24.155712","MEAN_MOTION":13.99293031,"ECCENTRICITY":0.02085633,"INCLINATION":74.0031,"RA_OF_ASC_NODE":199.441,"ARG_OF_PERICENTER":0.1054,"MEAN_ANOMALY":64.9956,"EPHEMERIS_TYPE":0,"CLASSIFICATION_TYPE":"U","NORAD_CAT_ID":34642,"ELEMENT_SET_NO":999,"REV_AT_EPOCH":86426,"BSTAR":0.00089471285,"MEAN_MOTION_DOT":1.543e-5,"MEAN_MOTION_DDOT":0},{"OBJECT_NAME":"COSMOS 2251 DEB","OBJECT_ID":"1993-036XR","EPOCH":"2026-03-04T04:52:20.826048","MEAN_MOTION":14.68588709,"ECCENTRICITY":0.0009118,"INCLINATION":74.0289,"RA_OF_ASC_NODE":336.8241,"ARG_OF_PERICENTER":32.5502,"MEAN_ANOMALY":118.3221,"EPHEMERIS_TYPE":0,"CLASSIFICATION_TYPE":"U","NORAD_CAT_ID":34671,"ELEMENT_SET_NO":999,"REV_AT_EPOCH":89492,"BSTAR":0.002469,"MEAN_MOTION_DOT":0.0001435,"MEAN_MOTION_DDOT":0},{"OBJECT_NAME":"COSMOS 2251 DEB","OBJECT_ID":"1993-036XS","EPOCH":"2026-03-01T23:11:07.253088","MEAN_MOTION":14.36544729,"ECCENTRICITY":0.00252481,"INCLINATION":74.0329,"RA_OF_ASC_NODE":160.0132,"ARG_OF_PERICENTER":218.9989,"MEAN_ANOMALY":262.2403,"EPHEMERIS_TYPE":0,"CLASSIFICATION_TYPE":"U","NORAD_CAT_ID":34672,"ELEMENT_SET_NO":999,"REV_AT_EPOCH":66315,"BSTAR":0.00025515002,"MEAN_MOTION_DOT":7.26e-6,"MEAN_MOTION_DDOT":0},{"OBJECT_NAME":"COSMOS 2251 DEB","OBJECT_ID":"1993-036XY","EPOCH":"2026-03-03T21:37:41.386944","MEAN_MOTION":14.30080274,"ECCENTRICITY":0.0026401,"INCLINATION":74.0361,"RA_OF_ASC_NODE":218.1352,"ARG_OF_PERICENTER":250.1625,"MEAN_ANOMALY":267.5285,"EPHEMERIS_TYPE":0,"CLASSIFICATION_TYPE":"U","NORAD_CAT_ID":34678,"ELEMENT_SET_NO":999,"REV_AT_EPOCH":88539,"BSTAR":3.2067e-5,"MEAN_MOTION_DOT":5.7e-7,"MEAN_MOTION_DDOT":0},{"OBJECT_NAME":"COSMOS 2251 DEB","OBJECT_ID":"1993-036YA","EPOCH":"2026-03-04T04:14:24.291456","MEAN_MOTION":14.61598918,"ECCENTRICITY":0.0004863,"INCLINATION":74.0456,"RA_OF_ASC_NODE":334.2486,"ARG_OF_PERICENTER":43.4971,"MEAN_ANOMALY":107.0398,"EPHEMERIS_TYPE":0,"CLASSIFICATION_TYPE":"U","NORAD_CAT_ID":34680,"ELEMENT_SET_NO":999,"REV_AT_EPOCH":89517,"BSTAR":0.0013902,"MEAN_MOTION_DOT":6.888e-5,"MEAN_MOTION_DDOT":0},{"OBJECT_NAME":"COSMOS 2251 DEB","OBJECT_ID":"1993-036YB","EPOCH":"2026-03-04T04:29:56.590656","MEAN_MOTION":14.85457941,"ECCENTRICITY":0.0022241,"INCLINATION":74.0616,"RA_OF_ASC_NODE":129.1313,"ARG_OF_PERICENTER":177.9262,"MEAN_ANOMALY":213.8444,"EPHEMERIS_TYPE":0,"CLASSIFICATION_TYPE":"U","NORAD_CAT_ID":34681,"ELEMENT_SET_NO":999,"REV_AT_EPOCH":90479,"BSTAR":0.0018392,"MEAN_MOTION_DOT":0.00015938,"MEAN_MOTION_DDOT":0},{"OBJECT_NAME":"COSMOS 2251 DEB","OBJECT_ID":"1993-036YC","EPOCH":"2026-03-04T01:56:20.878080","MEAN_MOTION":14.59548148,"ECCENTRICITY":0.001723,"INCLINATION":74.0377,"RA_OF_ASC_NODE":287.9926,"ARG_OF_PERICENTER":35.3409,"MEAN_ANOMALY":120.7259,"EPHEMERIS_TYPE":0,"CLASSIFICATION_TYPE":"U","NORAD_CAT_ID":34682,"ELEMENT_SET_NO":999,"REV_AT_EPOCH":89872,"BSTAR":0.0007781,"MEAN_MOTION_DOT":3.677e-5,"MEAN_MOTION_DDOT":0},{"OBJECT_NAME":"COSMOS 2251 DEB","OBJECT_ID":"1993-036YD","EPOCH":"2026-03-04T01:38:19.178592","MEAN_MOTION":14.6560985,"ECCENTRICITY":0.0016954,"INCLINATION":74.0286,"RA_OF_ASC_NODE":295.7486,"ARG_OF_PERICENTER":26.7596,"MEAN_ANOMALY":123.6888,"EPHEMERIS_TYPE":0,"CLASSIFICATION_TYPE":"U","NORAD_CAT_ID":34683,"ELEMENT_SET_NO":999,"REV_AT_EPOCH":89539,"BSTAR":0.0013121,"MEAN_MOTION_DOT":7.119e-5,"MEAN_MOTION_DDOT":0},{"OBJECT_NAME":"COSMOS 2251 DEB","OBJECT_ID":"1993-036YF","EPOCH":"2026-03-03T22:48:49.296384","MEAN_MOTION":14.58346565,"ECCENTRICITY":0.0011755,"INCLINATION":74.0325,"RA_OF_ASC_NODE":354.266,"ARG_OF_PERICENTER":80.1602,"MEAN_ANOMALY":38.6982,"EPHEMERIS_TYPE":0,"CLASSIFICATION_TYPE":"U","NORAD_CAT_ID":34685,"ELEMENT_SET_NO":999,"REV_AT_EPOCH":89715,"BSTAR":0.0013304,"MEAN_MOTION_DOT":6.141e-5,"MEAN_MOTION_DDOT":0},{"OBJECT_NAME":"COSMOS 2251 DEB","OBJECT_ID":"1993-036YK","EPOCH":"2026-03-03T11:18:00.347904","MEAN_MOTION":14.058953,"ECCENTRICITY":0.02195835,"INCLINATION":74.0866,"RA_OF_ASC_NODE":82.8075,"ARG_OF_PERICENTER":134.1089,"MEAN_ANOMALY":355.0162,"EPHEMERIS_TYPE":0,"CLASSIFICATION_TYPE":"U","NORAD_CAT_ID":34689,"ELEMENT_SET_NO":999,"REV_AT_EPOCH":85475,"BSTAR":0.0025302092,"MEAN_MOTION_DOT":5.127e-5,"MEAN_MOTION_DDOT":0},{"OBJECT_NAME":"COSMOS 2251 DEB","OBJECT_ID":"1993-036YP","EPOCH":"2026-03-02T19:04:54.269184","MEAN_MOTION":13.97225721,"ECCENTRICITY":0.02175792,"INCLINATION":73.9228,"RA_OF_ASC_NODE":187.3224,"ARG_OF_PERICENTER":110.1735,"MEAN_ANOMALY":40.9253,"EPHEMERIS_TYPE":0,"CLASSIFICATION_TYPE":"U","NORAD_CAT_ID":34721,"ELEMENT_SET_NO":999,"REV_AT_EPOCH":86267,"BSTAR":0.0014303545,"MEAN_MOTION_DOT":2.425e-5,"MEAN_MOTION_DDOT":0}]
