COSMOS 2251 DEB         
1 34626U 93036WX  26062.97930731  .00008773  00000+0  13498-2 0  9998
2 34626  74.0488 165.7996 0028874 240.5065 240.6699 14.73331456903407
COSMOS 2251 DEB         
1 34634U 93036XF  26062.65768183  .00001779  00000+0  40560-3 0  9992
2 34634  74.0489 241.7358 0045686 326.2371 160.4770 14.55961561899595
COSMOS 2251 DEB         
1 34635U 93036XG  26063.05848770  .00007921  00000+0  13290-2 0  9993
2 34635  74.0427 273.4041 0029306 319.5369 201.4832 14.69566467744137
COSMOS 2251 DEB         
1 34637U 93036XJ  26063.07283193  .00004688  00000+0  94678-3 0  9996
2 34637  74.0498 305.9521 0049413 353.3890 130.6756 14.60909203897145
COSMOS 2251 DEB         
1 34641U 93036XN  26063.05411262  .00002629  00000+0  64761-3 0  9992
2 34641  73.8370 286.5265 0017759 190.9289 319.6002 14.52639139894363
COSMOS 2251 DEB         
1 34642U 93036XP  26062.75027958  .00001543  00000+0  89471-3 0  9993
2 34642  74.0031 199.4410 0208563   0.1054  64.9956 13.99293031864263
COSMOS 2251 DEB         
1 34671U 93036XR  26063.20301882  .00014350  00000+0  24690-2 0  9998
2 34671  74.0289 336.8241 0009118  32.5502 118.3221 14.68588709894922
COSMOS 2251 DEB         
1 34672U 93036XS  26060.96605617  .00000726  00000+0  25515-3 0  9992
2 34672  74.0329 160.0132 0025248 218.9989 262.2403 14.36544729663154
COSMOS 2251 DEB         
1 34678U 93036XY  26062.90117346  .00000057  00000+0  32067-4 0  9999
2 34678  74.0361 218.1352 0026401 250.1625 267.5285 14.30080274885394
COSMOS 2251 DEB         
1 34680U 93036YA  26063.17667004  .00006888  00000+0  13902-2 0  9996
2 34680  74.0456 334.2486 0004863  43.4971 107.0398 14.61598918895178
COSMOS 2251 DEB         
1 34681U 93036YB  26063.18746054  .00015938  00000+0  18392-2 0  9995
2 34681  74.0616 129.1313 0022241 177.9262 213.8444 14.85457941904796
COSMOS 2251 DEB         
1 34682U 93036YC  26063.08079720  .00003677  00000+0  77810-3 0  9992
2 34682  74.0377 287.9926 0017230  35.3409 120.7259 14.59548148898722
COSMOS 2251 DEB         
1 34683U 93036YD  26063.06827753  .00007119  00000+0  13121-2 0  9997
2 34683  74.0286 295.7486 0016954  26.7596 123.6888 14.65609850895398
COSMOS 2251 DEB         
1 34685U 93036YF  26062.95057056  .00006141  00000+0  13304-2 0  9994
2 34685  74.0325 354.2660 0011755  80.1602  38.6982 14.58346565897154
COSMOS 2251 DEB         
1 34689U 93036YK  26062.47083736  .00005127  00000+0  25302-2 0  9993
2 34689  74.0866  82.8075 0219583 134.1089 355.0162 14.05895300854753
COSMOS 2251 DEB         
1 34721U 93036YP  26061.79507256  .00002425  00000+0  14304-2 0  9990
2 34721  73.9228 187.3224 0217579 110.1735  40.9253 13.97225721862677
